[{"OBJECT_NAME":"STARLINK-4131","OBJECT_ID":"2022-086E","EPOCH":"2026-03-09T16:44:39.392160","MEAN_MOTION":15.08827767,"ECCENTRICITY":0.00015979,"INCLINATION":53.2187,"RA_OF_ASC_NODE":204.0913,"ARG_OF_PERICENTER":45.235,"MEAN_ANOMALY":314.8772,"EPHEMERIS_TYPE":0,"CLASSIFICATION_TYPE":"U","NORAD_CAT_ID":53246,"ELEMENT_SET_NO":999,"REV_AT_EPOCH":20013,"BSTAR":-5.3472321e-5,"MEAN_MOTION_DOT":-1.139e-5,"MEAN_MOTION_DDOT":0},{"OBJECT_NAME":"CHUANGXIN 16A (CX-16A)","OBJECT_ID":"2022-102A","EPOCH":"2026-03-09T19:59:28.991616","MEAN_MOTION":15.05552649,"ECCENTRICITY":0.0005063,"INCLINATION":28.9941,"RA_OF_ASC_NODE":256.1289,"ARG_OF_PERICENTER":43.7318,"MEAN_ANOMALY":316.3682,"EPHEMERIS_TYPE":0,"CLASSIFICATION_TYPE":"U","NORAD_CAT_ID":53586,"ELEMENT_SET_NO":999,"REV_AT_EPOCH":19453,"BSTAR":0.00020134,"MEAN_MOTION_DOT":3.128e-5,"MEAN_MOTION_DDOT":0}]
