STARLINK-4131           
1 53246U 22086E   26068.69767815 -.00001139  00000+0 -53472-4 0  9999
2 53246  53.2187 204.0913 0001598  45.2350 314.8772 15.08827767200138
CHUANGXIN 16A (CX-16A)  
1 53586U 22102A   26068.83297444  .00003128  00000+0  20134-3 0  9993
2 53586  28.9941 256.1289 0005063  43.7318 316.3682 15.05552649194538
